{
  "type": "FeatureCollection",
  "features": [
    {
      "type": "Feature",
      "properties": {
        "norad_id": 31342,
        "name": "FENGYUN 1C DEB",
        "group": "fengyun-1c-debris",
        "lat": 41.00334105586275,
        "lon": -68.53462587939036,
        "alt_km": 844.4825764010002,
        "timestamp": "2025-12-09T04:51:47.774992+00:00",
        "meta_object_name": "FENGYUN 1C DEB",
        "meta_object_id": "1999-025BQW",
        "meta_epoch": "2025-11-29T02:18:53.046720",
        "meta_mean_motion": 14.36748173,
        "meta_eccentricity": 0.01111347,
        "meta_inclination": 98.9329,
        "meta_ra_of_asc_node": 288.8418,
        "meta_arg_of_pericenter": 259.8555,
        "meta_mean_anomaly": 99.0079,
        "meta_ephemeris_type": 0,
        "meta_classification_type": "U",
        "meta_norad_cat_id": 31342,
        "meta_element_set_no": 999,
        "meta_rev_at_epoch": 97695,
        "meta_bstar": 0.00017184307,
        "meta_mean_motion_dot": 4.93e-06,
        "meta_mean_motion_ddot": 0,
        "tle_line1": "1 31342U 99025BQW 25333.09644730  .00000493  00000+0  17184-3 0  9996",
        "tle_line2": "2 31342  98.9329 288.8418 0111134 259.8555  99.0079 14.36748173976958"
      },
      "geometry": {
        "type": "Point",
        "coordinates": [
          -68.53462587939036,
          41.00334105586275
        ]
      }
    },
    {
      "type": "Feature",
      "properties": {
        "norad_id": 31346,
        "name": "FENGYUN 1C DEB",
        "group": "fengyun-1c-debris",
        "lat": 0.34688934012870803,
        "lon": -50.44445214107581,
        "alt_km": 467.6901269580976,
        "timestamp": "2025-12-09T04:51:47.775002+00:00",
        "meta_object_name": "FENGYUN 1C DEB",
        "meta_object_id": "1999-025BRA",
        "meta_epoch": "2025-12-06T08:30:15.096096",
        "meta_mean_motion": 15.10510812,
        "meta_eccentricity": 0.01121025,
        "meta_inclination": 98.8658,
        "meta_ra_of_asc_node": 306.3137,
        "meta_arg_of_pericenter": 36.4773,
        "meta_mean_anomaly": 324.4023,
        "meta_ephemeris_type": 0,
        "meta_classification_type": "U",
        "meta_norad_cat_id": 31346,
        "meta_element_set_no": 999,
        "meta_rev_at_epoch": 99399,
        "meta_bstar": 0.0018382083,
        "meta_mean_motion_dot": 0.00035253,
        "meta_mean_motion_ddot": 0,
        "tle_line1": "1 31346U 99025BRA 25340.35434139  .00035253  00000+0  18382-2 0  9999",
        "tle_line2": "2 31346  98.8658 306.3137 0112102  36.4773 324.4023 15.10510812993994"
      },
      "geometry": {
        "type": "Point",
        "coordinates": [
          -50.44445214107581,
          0.34688934012870803
        ]
      }
    },
    {
      "type": "Feature",
      "properties": {
        "norad_id": 31348,
        "name": "FENGYUN 1C DEB",
        "group": "fengyun-1c-debris",
        "lat": -77.58163384282621,
        "lon": -19.170242880061068,
        "alt_km": 808.8621402619729,
        "timestamp": "2025-12-09T04:51:47.775012+00:00",
        "meta_object_name": "FENGYUN 1C DEB",
        "meta_object_id": "1999-025BRC",
        "meta_epoch": "2025-12-08T08:10:46.398720",
        "meta_mean_motion": 14.33993846,
        "meta_eccentricity": 0.00352025,
        "meta_inclination": 99.1191,
        "meta_ra_of_asc_node": 293.0834,
        "meta_arg_of_pericenter": 78.0004,
        "meta_mean_anomaly": 74.0816,
        "meta_ephemeris_type": 0,
        "meta_classification_type": "U",
        "meta_norad_cat_id": 31348,
        "meta_element_set_no": 999,
        "meta_rev_at_epoch": 96186,
        "meta_bstar": 0.0019749425,
        "meta_mean_motion_dot": 5.507e-05,
        "meta_mean_motion_ddot": 0,
        "tle_line1": "1 31348U 99025BRC 25342.34081480  .00005507  00000+0  19749-2 0  9996",
        "tle_line2": "2 31348  99.1191 293.0834 0035202  78.0004  74.0816 14.33993846961867"
      },
      "geometry": {
        "type": "Point",
        "coordinates": [
          -19.170242880061068,
          -77.58163384282621
        ]
      }
    },
    {
      "type": "Feature",
      "properties": {
        "norad_id": 31350,
        "name": "FENGYUN 1C DEB",
        "group": "fengyun-1c-debris",
        "lat": 9.374882826566576,
        "lon": -23.420122349255756,
        "alt_km": 737.9303795931273,
        "timestamp": "2025-12-09T04:51:47.775022+00:00",
        "meta_object_name": "FENGYUN 1C DEB",
        "meta_object_id": "1999-025BRE",
        "meta_epoch": "2025-12-08T18:02:03.920064",
        "meta_mean_motion": 14.34830277,
        "meta_eccentricity": 0.0066748,
        "meta_inclination": 98.9604,
        "meta_ra_of_asc_node": 154.6193,
        "meta_arg_of_pericenter": 136.9079,
        "meta_mean_anomaly": 223.7357,
        "meta_ephemeris_type": 0,
        "meta_classification_type": "U",
        "meta_norad_cat_id": 31350,
        "meta_element_set_no": 999,
        "meta_rev_at_epoch": 70196,
        "meta_bstar": 0.0010632,
        "meta_mean_motion_dot": 3.049e-05,
        "meta_mean_motion_ddot": 0,
        "tle_line1": "1 31350U 99025BRE 25342.75143426  .00003049  00000+0  10632-2 0  9994",
        "tle_line2": "2 31350  98.9604 154.6193 0066748 136.9079 223.7357 14.34830277701966"
      },
      "geometry": {
        "type": "Point",
        "coordinates": [
          -23.420122349255756,
          9.374882826566576
        ]
      }
    },
    {
      "type": "Feature",
      "properties": {
        "norad_id": 31351,
        "name": "FENGYUN 1C DEB",
        "group": "fengyun-1c-debris",
        "lat": 31.60529553265136,
        "lon": -35.388603451503165,
        "alt_km": 808.4148315535176,
        "timestamp": "2025-12-09T04:51:47.775032+00:00",
        "meta_object_name": "FENGYUN 1C DEB",
        "meta_object_id": "1999-025BRF",
        "meta_epoch": "2025-12-05T22:12:04.612896",
        "meta_mean_motion": 14.06922487,
        "meta_eccentricity": 0.00937925,
        "meta_inclination": 98.7943,
        "meta_ra_of_asc_node": 326.89,
        "meta_arg_of_pericenter": 70.3082,
        "meta_mean_anomaly": 290.8177,
        "meta_ephemeris_type": 0,
        "meta_classification_type": "U",
        "meta_norad_cat_id": 31351,
        "meta_element_set_no": 999,
        "meta_rev_at_epoch": 61279,
        "meta_bstar": 0.00046990462,
        "meta_mean_motion_dot": 7.73e-06,
        "meta_mean_motion_ddot": 0,
        "tle_line1": "1 31351U 99025BRF 25339.92505339  .00000773  00000+0  46990-3 0  9993",
        "tle_line2": "2 31351  98.7943 326.8900 0093792  70.3082 290.8177 14.06922487612795"
      },
      "geometry": {
        "type": "Point",
        "coordinates": [
          -35.388603451503165,
          31.60529553265136
        ]
      }
    },
    {
      "type": "Feature",
      "properties": {
        "norad_id": 31353,
        "name": "FENGYUN 1C DEB",
        "group": "fengyun-1c-debris",
        "lat": -46.613245763014966,
        "lon": -82.00670819860943,
        "alt_km": 890.8432669830954,
        "timestamp": "2025-12-09T04:51:47.775042+00:00",
        "meta_object_name": "FENGYUN 1C DEB",
        "meta_object_id": "1999-025BRH",
        "meta_epoch": "2025-12-08T13:58:15.944736",
        "meta_mean_motion": 14.29829751,
        "meta_eccentricity": 0.0229354,
        "meta_inclination": 98.9912,
        "meta_ra_of_asc_node": 267.7094,
        "meta_arg_of_pericenter": 79.5278,
        "meta_mean_anomaly": 283.1658,
        "meta_ephemeris_type": 0,
        "meta_classification_type": "U",
        "meta_norad_cat_id": 31353,
        "meta_element_set_no": 999,
        "meta_rev_at_epoch": 96525,
        "meta_bstar": 0.00080756,
        "meta_mean_motion_dot": 2.712e-05,
        "meta_mean_motion_ddot": 0,
        "tle_line1": "1 31353U 99025BRH 25342.58212899  .00002712  00000+0  80756-3 0  9990",
        "tle_line2": "2 31353  98.9912 267.7094 0229354  79.5278 283.1658 14.29829751965251"
      },
      "geometry": {
        "type": "Point",
        "coordinates": [
          -82.00670819860943,
          -46.613245763014966
        ]
      }
    },
    {
      "type": "Feature",
      "properties": {
        "norad_id": 31357,
        "name": "FENGYUN 1C DEB",
        "group": "fengyun-1c-debris",
        "lat": 12.413501722445433,
        "lon": 12.397594450786753,
        "alt_km": 818.9872359987548,
        "timestamp": "2025-12-09T04:51:47.775053+00:00",
        "meta_object_name": "FENGYUN 1C DEB",
        "meta_object_id": "1999-025BRM",
        "meta_epoch": "2025-12-08T08:34:35.892768",
        "meta_mean_motion": 14.18525517,
        "meta_eccentricity": 0.0049054,
        "meta_inclination": 98.612,
        "meta_ra_of_asc_node": 13.4886,
        "meta_arg_of_pericenter": 305.5769,
        "meta_mean_anomaly": 72.4364,
        "meta_ephemeris_type": 0,
        "meta_classification_type": "U",
        "meta_norad_cat_id": 31357,
        "meta_element_set_no": 999,
        "meta_rev_at_epoch": 96642,
        "meta_bstar": 7.8376769e-05,
        "meta_mean_motion_dot": 1.21e-06,
        "meta_mean_motion_ddot": 0,
        "tle_line1": "1 31357U 99025BRM 25342.35735987  .00000121  00000+0  78377-4 0  9996",
        "tle_line2": "2 31357  98.6120  13.4886 0049054 305.5769  72.4364 14.18525517966426"
      },
      "geometry": {
        "type": "Point",
        "coordinates": [
          12.397594450786753,
          12.413501722445433
        ]
      }
    }
  ]
}